DIWATA-2B               
1 43678U 18084H   23143.86665282  .00001799  00000+0  17725-3 0  9995
2 43678  98.0198 287.3524 0008448 237.4690 122.5713 14.93350953248637
STARS-AO                
1 43679U 18084J   23143.86835959  .00004520  00000+0  40173-3 0  9994
2 43679  98.0206 290.4862 0007591 238.2166 121.8315 14.96627039248795
AUTCUBE 2               
1 43681U 18084K   23143.67859412  .00004384  00000+0  40240-3 0  9999
2 43681  98.0175 288.3171 0007712 232.8976 127.1539 14.95377145248646
METOP-C                 
1 43689U 18087A   23143.90855286  .00000169  00000+0  97256-4 0  9998
2 43689  98.6841 203.8109 0003924 123.4961 236.6592 14.21507219235673
ES'HAIL 2               
1 43700U 18090A   23143.95300427  .00000148  00000+0  00000+0 0  9996
2 43700   0.0152 341.7534 0001304 110.2932 158.1124  1.00272038 16447
FACSAT-1                
1 43721U 18096C   23143.79307365  .00854300  35167-3  16145-2 0  9998
2 43721  97.3023 234.6807 0012946 252.2921 107.6945 16.00691604250707
REAKTOR HELLO WORLD     
1 43743U 18096AA  23143.76972933  .00050266  00000+0  73076-3 0  9998
2 43743  97.3173 230.1540 0009385 260.3192  99.7002 15.55578209250377
ELYSIUM STAR 2 & LFF    
1 43760U 18099C   23143.93457667  .00013047  00000+0  90203-3 0  9998
2 43760  97.5672 210.2769 0009576 178.1774 181.9489 15.05810219244201
2018-099D               
1 43761U 18099D   23143.88073920  .00001768  00000+0  15650-3 0  9999
2 43761  97.5744 205.8995 0013040 201.5369 158.5307 14.97465067243930
AISTECHSAT 2            
1 43768U 18099L   23143.73074172  .00003969  00000+0  33843-3 0  9999
2 43768  97.5702 204.1721 0009837 195.3770 164.7155 14.98249782243581
FOX-1CLIFF (AO-95)      
1 43770U 18099N   23143.73900022  .00004528  00000+0  37184-3 0  9998
2 43770  97.5766 205.9382 0011166 206.9231 153.1414 14.99628161243948
RANGE-A                 
1 43772U 18099Q   23143.90471519  .00006553  00000+0  51372-3 0  9998
2 43772  97.5801 208.7854 0008443 170.6039 189.5345 15.01275168244027
RANGE-B                 
1 43773U 18099R   23143.89431913  .00003556  00000+0  30303-3 0  9992
2 43773  97.5633 204.2459 0012705 195.1190 164.9655 14.98317835243921
2018-099T               
1 43775U 18099T   23143.92092226  .00003928  00000+0  33717-3 0  9993
2 43775  97.5734 205.7736 0013382 195.6952 164.3857 14.97971531243939
MOVE-II                 
1 43780U 18099Y   23143.67903393  .00009476  00000+0  70226-3 0  9997
2 43780  97.5697 208.2318 0008328 229.7263 130.3235 15.03292623244058
SNUSAT-2                
1 43782U 18099AA  23143.90259853  .00004634  00000+0  38144-3 0  9994
2 43782  97.5713 206.6117 0012828 192.8059 167.2840 14.99511334243991
SNUGLITE                
1 43784U 18099AC  23143.92946205  .00005984  00000+0  48375-3 0  9998
2 43784  97.5742 206.2849 0010613 191.4569 168.6415 15.00115576244034
ITASAT 1                
1 43786U 18099AE  23143.73618503  .00004607  00000+0  38108-3 0  9990
2 43786  97.5795 206.9669 0012660 194.7375 165.3481 14.99332568243985
KAZSCISAT-1             
1 43787U 18099AF  23143.89789242  .00008078  00000+0  60512-3 0  9997
2 43787  97.5580 206.8926 0008113 190.1394 169.9669 15.02936109244123
EAGLET-I                
1 43790U 18099AJ  23143.70430829  .00003621  00000+0  30364-3 0  9996
2 43790  97.5742 207.4231 0012795 204.2986 155.7635 14.98931521243715
ESEO                    
1 43792U 18099AL  23143.90649665  .00002212  00000+0  19423-3 0  9998
2 43792  97.5693 206.1620 0012501 200.3731 159.6994 14.97540475243758
CSIM-FD                 
1 43793U 18099AM  23143.91475401  .00008679  00000+0  63451-3 0  9998
2 43793  97.5782 209.7505 0015955 202.1150 157.9390 15.03756727243938
ASTROCAST 0.1           
1 43798U 18099AS  23143.89804732  .00007798  00000+0  59453-3 0  9991
2 43798  97.5877 209.1144 0013303 173.7088 186.4307 15.02234351244129
JY1SAT (JO-97)          
1 43803U 18099AX  23143.91157588  .00005886  00000+0  47008-3 0  9990
2 43803  97.5686 207.1085 0012586 173.8109 186.3273 15.00569421244053
SUOMI-100               
1 43804U 18099AY  23143.70246300  .00005610  00000+0  45157-3 0  9997
2 43804  97.5674 206.7297 0016787 192.3597 167.7217 15.00242256244027
AL-FARABI 2             
1 43805U 18099AZ  23143.67224607  .00007718  00000+0  59460-3 0  9993
2 43805  97.5559 207.6950 0011830 180.5278 179.5936 15.01855572244071
CENTAURI-1              
1 43809U 18099BD  23143.72954488  .00004780  00000+0  39649-3 0  9993
2 43809  97.5751 206.8401 0013272 193.9976 166.0881 14.99200098243708
CHOMPTT                 
1 43855U 18104G   23143.60725374  .00021654  00000+0  55100-3 0  9997
2 43855  85.0304 182.8628 0014137  62.4018 297.8667 15.39354129246794
UWE-4                   
1 43880U 18111E   23143.70850193  .00005243  00000+0  40436-3 0  9994
2 43880  97.6336  49.2812 0015759 254.3717 105.5769 15.01930060240690
ZACUBE-2                
1 43907U 18111AH  23143.90021875  .00023064  00000+0  58849-3 0  9991
2 43907  97.1412  24.0976 0012840 306.1307  53.8751 15.39423617245418
MICRODRAGON             
1 43935U 19003D   23143.86465911  .00016185  00000+0  49690-3 0  9991
2 43935  97.1048 164.3462 0015316  48.3819 311.8734 15.33687382241707
M6P                     
1 44109U 19018AF  23143.82527128  .00143282  00000+0  86503-3 0  9999
2 44109  97.3675 241.5109 0019457 311.2721  48.6868 15.76962156232197
FORMOSAT 7-4            
1 44350U 19036M   23143.84067807  .00005964  00000+0  34338-3 0  9995
2 44350  23.9980 196.4259 0000604 139.0170 221.0379 15.09294682215015
METEOR-M2 2             
1 44387U 19038A   23143.85631555  .00000059  00000+0  45475-4 0  9990
2 44387  98.7743 107.8123 0001929  45.8459 314.2877 14.23782102201841
VDNH-80                 
1 44392U 19038G   23143.88433077  .00021959  00000+0  78925-3 0  9995
2 44392  97.6725 124.3859 0016369  37.6727 322.5655 15.28531740214684
D-STAR ONE (LIGHTSAT)   
1 44393U 19038H   23143.84586215  .00022518  00000+0  79402-3 0  9998
2 44393  97.6732 124.3947 0016411  37.9353 322.3039 15.29151725214795
AMGU-1 (AMURSAT)        
1 44394U 19038J   23143.89974444  .00026547  00000+0  89047-3 0  9991
2 44394  97.6707 124.6810 0015910  37.8449 322.3907 15.30748964214825
DOT-1                   
1 44399U 19038P   23143.89336147  .00012616  00000+0  54502-3 0  9998
2 44399  97.6819 121.5898 0021130  45.8759 314.4210 15.22430472214585
SOKRAT                  
1 44404U 19038U   23143.82810393  .00025907  00000+0  88286-3 0  9991
2 44404  97.6720 124.1238 0016289  39.5738 320.6688 15.30234742214787
LUCKY-7                 
1 44406U 19038W   23143.49147512  .00014803  00000+0  61995-3 0  9993
2 44406  97.6799 121.8244 0020414  39.0610 321.2095 15.23457317214567
D-STAR ONE (EXOCONNECT) 
1 44410U 19038AA  23143.68154455  .00067863  00000+0  14350-2 0  9999
2 44410  97.6607 127.7674 0011191  37.7852 322.4180 15.44849193215049
NARSSCUBE-2             
1 44415U 19022E   23143.54375258  .00028559  00000+0  55331-3 0  9992
2 44415  51.6355 260.0960 0009175 220.1343 139.8968 15.47430869212494
DUCHIFAT-3              
1 44854U 19089C   23143.61031167  .00007903  00000+0  53756-3 0  9997
2 44854  36.9613 238.1290 0008359 119.1188 241.0393 15.05908309189194
OPS-SAT                 
1 44878U 19092F   23143.79617756  .00027116  00000+0  83794-3 0  9993
2 44878  97.4762 332.2505 0009077 215.0858 144.9787 15.33458379190053
FLORIPASAT-1            
1 44885U 19093G   23143.90066344  .00004387  00000+0  51172-3 0  9996
2 44885  97.8675 225.3350 0014539 155.1050 205.0870 14.85633925185341
BY70-2                  
1 45857U 20042B   23143.90044990  .00017211  00000+0  18020-2 0  9999
2 45857  97.9249 223.7320 0010220  94.7701 265.4683 14.89626779155928
SALSAT                  
1 46495U 20068K   23143.82902019  .00003623  00000+0  24226-3 0  9990
2 46495  97.7689  91.5813 0015004 196.1553 163.9198 15.07530592145401
NETSAT-4                
1 46504U 20068U   23143.81734623  .00005369  00000+0  35927-3 0  9993
2 46504  97.7616  89.4066 0009370 248.7014 111.3213 15.07337413145236
NETSAT-3                
1 46505U 20068V   23143.84799079  .00005899  00000+0  39592-3 0  9993
2 46505  97.7609  89.2727 0008209 258.7850 101.2455 15.07188103145247
NETSAT-1                
1 46506U 20068W   23143.82010221  .00004188  00000+0  28456-3 0  9994
2 46506  97.7608  89.1315 0006676 270.8616  89.1846 15.06912145145237
NETSAT-2                
1 46507U 20068X   23143.81423938  .00005528  00000+0  37064-3 0  9991
2 46507  97.7602  89.1544 0006075 279.6594  80.3947 15.07266236145184
UVSQ-SAT                
1 47438U 21006AB  23143.73792796  .00013490  00000+0  56344-3 0  9999
2 47438  97.3853 201.2075 0010993 160.6892 199.4764 15.23698763128926
SOMP2B                  
1 47445U 21006AJ  23143.71486321  .00013490  00000+0  57550-3 0  9999
2 47445  97.3821 200.4741 0010654 165.3618 194.7929 15.22986080128890
DIY-1 (ARDUIQUBE)       
1 47963U 21022AH  23143.70771825  .00159715  00000+0  25295-2 0  9998
2 47963  97.4985  51.0938 0009459  67.4153 292.8099 15.52805567118780
CAS-5A                  
1 54684U 22167C   23143.88284080  .00010445  00000+0  58492-3 0  9990
2 54684  97.5596 281.6417 0014373  62.8506 297.4189 15.13524266 25006
